STARLINK-1036           
1 44741U 19074AE  25083.99962885  .00049899  00000+0  33411-2 0  9997
2 44741  53.0563 336.4372 0000969  66.9790 293.1301 15.06445904295938
STARLINK-1042           
1 44747U 19074AL  25083.90912799  .00031163  00000+0  91244-3 0  9997
2 44747  53.0510 312.3905 0005527 130.0007 230.1480 15.34975758296284
STARLINK-1043           
1 44748U 19074AM  25083.77294744  .00045651  00000+0  30601-2 0  9992
2 44748  53.0561 357.4528 0001552  99.5595 260.5570 15.06445462295455
STARLINK-1047           
1 44752U 19074AR  25083.95300209  .00025658  00000+0  11318-2 0  9990
2 44752  53.0603 327.7108 0004339 118.8630 241.2802 15.21633011295889
STARLINK-1048           
1 44753U 19074AS  25083.94618023  .00020945  00000+0  14208-2 0  9991
2 44753  53.0555 316.6778 0001631  88.5484 271.5692 15.06401315296032
STARLINK-1053           
1 44758U 19074AX  25084.03061232  .00044458  00000+0  11226-2 0  9993
2 44758  53.0488 342.3335 0000774 110.8462 249.2624 15.39408823295852
STARLINK-1054           
1 44759U 19074AY  25084.01620544  .00032594  00000+0  21960-2 0  9993
2 44759  53.0559 356.3637 0001437  99.7898 260.3254 15.06416437295663
STARLINK-1056           
1 44761U 19074BA  25084.14521482  .00040433  00000+0  27123-2 0  9999
2 44761  53.0544 355.7839 0001564  80.9327 279.1839 15.06474778295688
STARLINK-1057           
1 44762U 19074BB  25084.01437571  .00033363  00000+0  22455-2 0  9998
2 44762  53.0550 336.3712 0001149 106.0153 254.0962 15.06442712295937
STARLINK-1058           
1 44763U 19074BC  25083.58335648  .00664783  21076-3  12500-2 0  9998
2 44763  53.0382 301.8221 0007662 239.7980 220.3857 16.00265865296387
STARLINK-1060           
1 44765U 19074BE  25083.96276798  .00032198  00000+0  21676-2 0  9995
2 44765  53.0550 336.6038 0001503  81.6730 278.4429 15.06451155295756
STARLINK-1062           
1 44767U 19074BG  25084.04983752  .01317629  11728-2  12668-2 0  9991
2 44767  53.0345 297.5177 0007141 252.3551 248.7079 16.11302782296481
STARLINK-1063           
1 44768U 19074BH  25084.17470039  .00035117  00000+0  23601-2 0  9990
2 44768  53.0554 355.6508 0001429  79.4569 280.6581 15.06472085295689
STARLINK-1067           
1 44771U 19074BL  25083.76557513  .00034962  00000+0  23515-2 0  9992
2 44771  53.0565 357.4856 0001652  90.5292 269.5887 15.06445943295459
STARLINK-1068           
1 44772U 19074BM  25084.02174124  .00028394  00000+0  19148-2 0  9995
2 44772  53.0555 336.3426 0001497  82.1776 277.9383 15.06450413295934
JILIN-1 GAOFEN 2A       
1 44777U 19075A   25084.03220814  .00025758  00000+0  10091-2 0  9999
2 44777  97.5386 155.9989 0008276 230.8717 129.1786 15.25739006296106
NINGXIA-1 1             
1 44779U 19076A   25084.16704548  .00000149  00000+0  18146-3 0  9994
2 44779  45.0082  26.2432 0010770 198.4099 161.6346 14.01903317274847
NINGXIA-1 2             
1 44780U 19076B   25084.15481899  .00000149  00000+0  18191-3 0  9996
2 44780  45.0107  26.5820 0006800 196.1742 163.8876 14.01837063274846
NINGXIA-1 3             
1 44781U 19076C   25084.14068250  .00000159  00000+0  18820-3 0  9998
2 44781  45.0022  25.1601 0009437 187.5563 172.5130 14.01891751274843
NINGXIA-1 4             
1 44782U 19076D   25084.05490812  .00000166  00000+0  19262-3 0  9991
2 44782  45.0106  26.6812 0011950 162.9797 197.1440 14.01933722274837
NINGXIA-1 5             
1 44783U 19076E   25084.18175317  .00000143  00000+0  17802-3 0  9999
2 44783  45.0080  25.5444 0010510 185.9490 174.1221 14.01927811274850
KL-ALPHA A              
1 44785U 19077A   25083.88922810  .00000128  00000+0  16560-3 0  9999
2 44785  88.9010 272.2780 0010529 349.9211  10.1730 13.55984633264843
KL-ALPHA B              
1 44786U 19077B   25084.17943198  .00000126  00000+0  16263-3 0  9993
2 44786  88.8866 270.4572 0027200  22.9278 337.3084 13.55947327264335
BEIDOU-3 M22            
1 44793U 19078A   25082.04350981 -.00000035  00000+0  00000+0 0  9996
2 44793  54.3380 315.6518 0007176  30.6162 329.4765  1.86232089 36240
BEIDOU-3 M21            
1 44794U 19078B   25083.78588893 -.00000028  00000+0  00000+0 0  9996
2 44794  54.3101 315.5610 0005202  26.2422 333.8383  1.86227710 36286
TIBA-1                  
1 44800U 19080A   25083.87961624  .00000154  00000+0  00000+0 0  9993
2 44800   0.0579   9.3867 0001999 348.5712 176.7797  1.00270953 19551
INMARSAT GX5            
1 44801U 19080B   25084.08100503  .00000073  00000+0  00000+0 0  9999
2 44801   0.0120   1.6854 0001796  21.3750 199.8991  1.00271577 19586
