"OBJECT_NAME","OBJECT_ID","EPOCH","MEAN_MOTION","ECCENTRICITY","INCLINATION","RA_OF_ASC_NODE","ARG_OF_PERICENTER","MEAN_ANOMALY","EPHEMERIS_TYPE","CLASSIFICATION_TYPE","NORAD_CAT_ID","ELEMENT_SET_NO","REV_AT_EPOCH","BSTAR","MEAN_MOTION_DOT","MEAN_MOTION_DDOT"
"STARLINK-1036","2019-074AE","2025-03-24T23:59:27.932640",15.06445904,0.0000969,53.0563,336.4372,66.979,293.1301,0,"U",44741,999,29593,0.0033411,0.00049899,0
"STARLINK-1042","2019-074AL","2025-03-24T21:49:08.658336",15.34975758,0.0005527,53.051,312.3905,130.0007,230.148,0,"U",44747,999,29628,0.00091244,0.00031163,0
"STARLINK-1043","2019-074AM","2025-03-24T18:33:02.658816",15.06445462,0.0001552,53.0561,357.4528,99.5595,260.557,0,"U",44748,999,29545,0.0030601,0.00045651,0
"STARLINK-1047","2019-074AR","2025-03-24T22:52:19.380576",15.21633011,0.0004339,53.0603,327.7108,118.863,241.2802,0,"U",44752,999,29588,0.0011318,0.00025658,0
"STARLINK-1048","2019-074AS","2025-03-24T22:42:29.971872",15.06401315,0.0001631,53.0555,316.6778,88.5484,271.5692,0,"U",44753,999,29603,0.0014208,0.00020945,0
"STARLINK-1053","2019-074AX","2025-03-25T00:44:04.904448",15.39408823,0.0000774,53.0488,342.3335,110.8462,249.2624,0,"U",44758,999,29585,0.0011226,0.00044458,0
"STARLINK-1054","2019-074AY","2025-03-25T00:23:20.150016",15.06416437,0.0001437,53.0559,356.3637,99.7898,260.3254,0,"U",44759,999,29566,0.002196,0.00032594,0
"STARLINK-1056","2019-074BA","2025-03-25T03:29:06.560448",15.06474778,0.0001564,53.0544,355.7839,80.9327,279.1839,0,"U",44761,999,29568,0.0027123,0.00040433,0
"STARLINK-1057","2019-074BB","2025-03-25T00:20:42.061344",15.06442712,0.0001149,53.055,336.3712,106.0153,254.0962,0,"U",44762,999,29593,0.0022455,0.00033363,0
"STARLINK-1058","2019-074BC","2025-03-24T14:00:01.999872",16.00265865,0.0007662,53.0382,301.8221,239.798,220.3857,0,"U",44763,999,29638,0.00125,0.00664783,0.00021076
"STARLINK-1060","2019-074BE","2025-03-24T23:06:23.153472",15.06451155,0.0001503,53.055,336.6038,81.673,278.4429,0,"U",44765,999,29575,0.0021676,0.00032198,0
"STARLINK-1062","2019-074BG","2025-03-25T01:11:45.961728",16.11302782,0.0007141,53.0345,297.5177,252.3551,248.7079,0,"U",44767,999,29648,0.0012668,0.01317629,0.0011728
"STARLINK-1063","2019-074BH","2025-03-25T04:11:34.113696",15.06472085,0.0001429,53.0554,355.6508,79.4569,280.6581,0,"U",44768,999,29568,0.0023601,0.00035117,0
"STARLINK-1067","2019-074BL","2025-03-24T18:22:25.691232",15.06445943,0.0001652,53.0565,357.4856,90.5292,269.5887,0,"U",44771,999,29545,0.0023515,0.00034962,0
"STARLINK-1068","2019-074BM","2025-03-25T00:31:18.443136",15.06450413,0.0001497,53.0555,336.3426,82.1776,277.9383,0,"U",44772,999,29593,0.0019148,0.00028394,0
"JILIN-1 GAOFEN 2A","2019-075A","2025-03-25T00:46:22.783296",15.25739006,0.0008276,97.5386,155.9989,230.8717,129.1786,0,"U",44777,999,29610,0.0010091,0.00025758,0
"NINGXIA-1 1","2019-076A","2025-03-25T04:00:32.729472",14.01903317,0.001077,45.0082,26.2432,198.4099,161.6346,0,"U",44779,999,27484,0.00018146,0.00000149,0
"NINGXIA-1 2","2019-076B","2025-03-25T03:42:56.360736",14.01837063,0.00068,45.0107,26.582,196.1742,163.8876,0,"U",44780,999,27484,0.00018191,0.00000149,0
"NINGXIA-1 3","2019-076C","2025-03-25T03:22:34.968000",14.01891751,0.0009437,45.0022,25.1601,187.5563,172.513,0,"U",44781,999,27484,0.0001882,0.00000159,0
"NINGXIA-1 4","2019-076D","2025-03-25T01:19:04.061568",14.01933722,0.001195,45.0106,26.6812,162.9797,197.144,0,"U",44782,999,27483,0.00019262,0.00000166,0
"NINGXIA-1 5","2019-076E","2025-03-25T04:21:43.473888",14.01927811,0.001051,45.008,25.5444,185.949,174.1221,0,"U",44783,999,27485,0.00017802,0.00000143,0
"KL-ALPHA A","2019-077A","2025-03-24T21:20:29.307840",13.55984633,0.0010529,88.901,272.278,349.9211,10.173,0,"U",44785,999,26484,0.0001656,0.00000128,0
"KL-ALPHA B","2019-077B","2025-03-25T04:18:22.923072",13.55947327,0.00272,88.8866,270.4572,22.9278,337.3084,0,"U",44786,999,26433,0.00016263,0.00000126,0
"BEIDOU-3 M22","2019-078A","2025-03-23T01:02:39.247584",1.86232089,0.0007176,54.338,315.6518,30.6162,329.4765,0,"U",44793,999,3624,0,-3.5e-7,0
"BEIDOU-3 M21","2019-078B","2025-03-24T18:51:40.803552",1.8622771,0.0005202,54.3101,315.561,26.2422,333.8383,0,"U",44794,999,3628,0,-2.8e-7,0
"TIBA-1","2019-080A","2025-03-24T21:06:38.843136",1.00270953,0.0001999,0.0579,9.3867,348.5712,176.7797,0,"U",44800,999,1955,0,0.00000154,0
"INMARSAT GX5","2019-080B","2025-03-25T01:56:38.834592",1.00271577,0.0001796,0.012,1.6854,21.375,199.8991,0,"U",44801,999,1958,0,7.3e-7,0
